start=new Date('2023-05-17T00:00:00.000Z').valueOf();
sats=[{"GP_ID":"231994240","INCLINATION":"53.0552","BSTAR":"0.00139210000000","TLE_LINE1":"1 46073U 20055AY  23136.89646284  .00020524  00000-0  13921-2 0  9995","PERIAPSIS":"546.454","SEMIMAJOR_AXIS":"6925.295","NORAD_CAT_ID":"46073","LAUNCH_DATE":"2020-08-07","CENTER_NAME":"EARTH","ECCENTRICITY":"0.00010190","EPHEMERIS_TYPE":"0","MEAN_MOTION_DOT":"0.00020524","RA_OF_ASC_NODE":"30.5652","OBJECT_TYPE":"PAYLOAD","SITE":"AFETR","REV_AT_EPOCH":"15439","MEAN_MOTION":"15.06417434","APOAPSIS":"547.866","OBJECT_ID":"2020-055AY","FILE":"3909742","EPOCH":"2023-05-16T21:30:54.389376","ARG_OF_PERICENTER":"88.1592","MEAN_ANOMALY":"271.9514","TLE_LINE2":"2 46073  53.0552  30.5652 0001019  88.1592 271.9514 15.06417434154393","COUNTRY_CODE":"US","MEAN_MOTION_DDOT":"0.0000000000000","OBJECT_NAME":"STARLINK-1542","REF_FRAME":"TEME","MEAN_ELEMENT_THEORY":"SGP4","TIME_SYSTEM":"UTC","ELEMENT_SET_NO":"999","PERIOD":"95.591","CLASSIFICATION_TYPE":"U","DECAY_DATE":null,"RCS_SIZE":"LARGE"},{"EPOCH":"2023-05-16T19:34:08.414688","FILE":"3909742","APOAPSIS":"547.999","OBJECT_ID":"2020-055AZ","MEAN_MOTION":"15.06420341","REV_AT_EPOCH":"15437","SITE":"AFETR","OBJECT_TYPE":"PAYLOAD","RA_OF_ASC_NODE":"30.9261","MEAN_MOTION_DOT":"0.00017932","EPHEMERIS_TYPE":"0","ECCENTRICITY":"0.00012240","CENTER_NAME":"EARTH","LAUNCH_DATE":"2020-08-07","NORAD_CAT_ID":"46074","SEMIMAJOR_AXIS":"6925.286","TLE_LINE1":"1 46074U 20055AZ  23136.81537517  .00017932  00000-0  12190-2 0  9992","PERIAPSIS":"546.304","BSTAR":"0.00121900000000","INCLINATION":"53.0551","GP_ID":"231994992","RCS_SIZE":"LARGE","DECAY_DATE":null,"CLASSIFICATION_TYPE":"U","PERIOD":"95.591","ELEMENT_SET_NO":"999","TIME_SYSTEM":"UTC","MEAN_ELEMENT_THEORY":"SGP4","REF_FRAME":"TEME","OBJECT_NAME":"STARLINK-1549","MEAN_MOTION_DDOT":"0.0000000000000","COUNTRY_CODE":"US","TLE_LINE2":"2 46074  53.0551  30.9261 0001224  67.2929 292.8189 15.06420341154372","MEAN_ANOMALY":"292.8189","ARG_OF_PERICENTER":"67.2929"},{"FILE":"3909742","EPOCH":"2023-05-16T21:46:50.022624","OBJECT_ID":"2020-055BA","APOAPSIS":"547.899","MEAN_MOTION":"15.06433126","REV_AT_EPOCH":"15439","SITE":"AFETR","OBJECT_TYPE":"PAYLOAD","RA_OF_ASC_NODE":"30.5049","MEAN_MOTION_DOT":"0.00018613","EPHEMERIS_TYPE":"0","ECCENTRICITY":"0.00011370","CENTER_NAME":"EARTH","LAUNCH_DATE":"2020-08-07","NORAD_CAT_ID":"46075","SEMIMAJOR_AXIS":"6925.247","PERIAPSIS":"546.325","TLE_LINE1":"1 46075U 20055BA  23136.90752341  .00018613  00000-0  12640-2 0  9994","BSTAR":"0.00126400000000","INCLINATION":"53.0557","GP_ID":"231995741","RCS_SIZE":"LARGE","DECAY_DATE":null,"CLASSIFICATION_TYPE":"U","PERIOD":"95.590","ELEMENT_SET_NO":"999","TIME_SYSTEM":"UTC","MEAN_ELEMENT_THEORY":"SGP4","REF_FRAME":"TEME","OBJECT_NAME":"STARLINK-1551","MEAN_MOTION_DDOT":"0.0000000000000","COUNTRY_CODE":"US","TLE_LINE2":"2 46075  53.0557  30.5049 0001137  91.6356 268.4764 15.06433126154392","MEAN_ANOMALY":"268.4764","ARG_OF_PERICENTER":"91.6356"},{"TLE_LINE1":"1 46076U 20055BB  23136.66794142  .00016296  00000-0  11098-2 0  9994","PERIAPSIS":"546.204","BSTAR":"0.00110980000000","INCLINATION":"53.0555","NORAD_CAT_ID":"46076","SEMIMAJOR_AXIS":"6925.289","GP_ID":"231994490","REV_AT_EPOCH":"15434","SITE":"AFETR","OBJECT_TYPE":"PAYLOAD","RA_OF_ASC_NODE":"31.5871","MEAN_MOTION_DOT":"0.00016296","FILE":"3909742","EPOCH":"2023-05-16T16:01:50.138688","APOAPSIS":"548.105","OBJECT_ID":"2020-055BB","MEAN_MOTION":"15.06419319","ECCENTRICITY":"0.00013730","CENTER_NAME":"EARTH","LAUNCH_DATE":"2020-08-07","EPHEMERIS_TYPE":"0","COUNTRY_CODE":"US","OBJECT_NAME":"STARLINK-1552","MEAN_MOTION_DDOT":"0.0000000000000","ARG_OF_PERICENTER":"79.6444","TLE_LINE2":"2 46076  53.0555  31.5871 0001373  79.6444 280.4700 15.06419319154348","MEAN_ANOMALY":"280.4700","ELEMENT_SET_NO":"999","PERIOD":"95.591","RCS_SIZE":"LARGE","DECAY_DATE":null,"CLASSIFICATION_TYPE":"U","TIME_SYSTEM":"UTC","MEAN_ELEMENT_THEORY":"SGP4","REF_FRAME":"TEME"},{"CENTER_NAME":"EARTH","LAUNCH_DATE":"2020-08-07","ECCENTRICITY":"0.00012340","EPHEMERIS_TYPE":"0","MEAN_MOTION_DOT":"0.00005590","RA_OF_ASC_NODE":"30.4718","OBJECT_TYPE":"PAYLOAD","SITE":"AFETR","REV_AT_EPOCH":"15435","MEAN_MOTION":"15.06419804","APOAPSIS":"548.007","OBJECT_ID":"2020-055BC","FILE":"3909742","EPOCH":"2023-05-16T21:57:26.423424","GP_ID":"231994740","INCLINATION":"53.0561","BSTAR":"0.00039366000000","PERIAPSIS":"546.298","TLE_LINE1":"1 46077U 20055BC  23136.91488916  .00005590  00000-0  39366-3 0  9996","SEMIMAJOR_AXIS":"6925.288","NORAD_CAT_ID":"46077","REF_FRAME":"TEME","MEAN_ELEMENT_THEORY":"SGP4","TIME_SYSTEM":"UTC","PERIOD":"95.591","ELEMENT_SET_NO":"999","CLASSIFICATION_TYPE":"U","DECAY_DATE":null,"RCS_SIZE":"LARGE","ARG_OF_PERICENTER":"96.8845","MEAN_ANOMALY":"263.2284","TLE_LINE2":"2 46077  53.0561  30.4718 0001234  96.8845 263.2284 15.06419804154352","COUNTRY_CODE":"US","MEAN_MOTION_DDOT":"0.0000000000000","OBJECT_NAME":"STARLINK-1559"},{"ELEMENT_SET_NO":"999","PERIOD":"95.592","CLASSIFICATION_TYPE":"U","RCS_SIZE":"LARGE","DECAY_DATE":null,"MEAN_ELEMENT_THEORY":"SGP4","REF_FRAME":"TEME","TIME_SYSTEM":"UTC","COUNTRY_CODE":"US","MEAN_MOTION_DDOT":"0.0000000000000","OBJECT_NAME":"STARLINK-1563","ARG_OF_PERICENTER":"80.7691","MEAN_ANOMALY":"279.3443","TLE_LINE2":"2 46078  53.0549  31.4708 0001283  80.7691 279.3443 15.06405775154339","RA_OF_ASC_NODE":"31.4708","OBJECT_TYPE":"PAYLOAD","MEAN_MOTION_DOT":"0.00021417","REV_AT_EPOCH":"15433","SITE":"AFETR","MEAN_MOTION":"15.06405775","FILE":"3909742","EPOCH":"2023-05-16T16:38:59.131680","OBJECT_ID":"2020-055BD","APOAPSIS":"548.084","LAUNCH_DATE":"2020-08-07","CENTER_NAME":"EARTH","ECCENTRICITY":"0.00012830","EPHEMERIS_TYPE":"0","BSTAR":"0.00145210000000","INCLINATION":"53.0549","PERIAPSIS":"546.307","TLE_LINE1":"1 46078U 20055BD  23136.69373995  .00021417  00000-0  14521-2 0  9993","SEMIMAJOR_AXIS":"6925.331","NORAD_CAT_ID":"46078","GP_ID":"231995492"},{"ELEMENT_SET_NO":"999","PERIOD":"95.591","CLASSIFICATION_TYPE":"U","RCS_SIZE":"LARGE","DECAY_DATE":null,"MEAN_ELEMENT_THEORY":"SGP4","REF_FRAME":"TEME","TIME_SYSTEM":"UTC","COUNTRY_CODE":"US","MEAN_MOTION_DDOT":"0.0000000000000","OBJECT_NAME":"STARLINK-1566","ARG_OF_PERICENTER":"107.0331","MEAN_ANOMALY":"253.0788","TLE_LINE2":"2 46079  53.0549  31.5028 0001187 107.0331 253.0788 15.06422763154363","RA_OF_ASC_NODE":"31.5028","OBJECT_TYPE":"PAYLOAD","MEAN_MOTION_DOT":"0.00019911","REV_AT_EPOCH":"15436","SITE":"AFETR","MEAN_MOTION":"15.06422763","FILE":"3909742","EPOCH":"2023-05-16T16:28:22.047456","APOAPSIS":"547.966","OBJECT_ID":"2020-055BE","LAUNCH_DATE":"2020-08-07","CENTER_NAME":"EARTH","ECCENTRICITY":"0.00011870","EPHEMERIS_TYPE":"0","BSTAR":"0.00135100000000","INCLINATION":"53.0549","TLE_LINE1":"1 46079U 20055BE  23136.68636629  .00019911  00000-0  13510-2 0  9992","PERIAPSIS":"546.322","SEMIMAJOR_AXIS":"6925.279","NORAD_CAT_ID":"46079","GP_ID":"231995243"},{"OBJECT_TYPE":"PAYLOAD","RA_OF_ASC_NODE":"30.4866","MEAN_MOTION_DOT":"0.00026153","REV_AT_EPOCH":"15437","SITE":"AFETR","MEAN_MOTION":"15.06418286","FILE":"3909742","EPOCH":"2023-05-16T21:50:46.987584","APOAPSIS":"547.811","OBJECT_ID":"2020-055BF","LAUNCH_DATE":"2020-08-07","CENTER_NAME":"EARTH","ECCENTRICITY":"0.00009440","EPHEMERIS_TYPE":"0","BSTAR":"0.00176730000000","INCLINATION":"53.0544","PERIAPSIS":"546.504","TLE_LINE1":"1 46080U 20055BF  23136.91026606  .00026153  00000-0  17673-2 0  9998","SEMIMAJOR_AXIS":"6925.293","NORAD_CAT_ID":"46080","GP_ID":"231993992","ELEMENT_SET_NO":"999","PERIOD":"95.591","CLASSIFICATION_TYPE":"U","RCS_SIZE":"LARGE","DECAY_DATE":null,"MEAN_ELEMENT_THEORY":"SGP4","REF_FRAME":"TEME","TIME_SYSTEM":"UTC","COUNTRY_CODE":"US","MEAN_MOTION_DDOT":"0.0000000000000","OBJECT_NAME":"STARLINK-1568","ARG_OF_PERICENTER":"72.7062","MEAN_ANOMALY":"287.4030","TLE_LINE2":"2 46080  53.0544  30.4866 0000944  72.7062 287.4030 15.06418286154374"},{"ELEMENT_SET_NO":"999","PERIOD":"95.591","RCS_SIZE":"LARGE","DECAY_DATE":null,"CLASSIFICATION_TYPE":"U","TIME_SYSTEM":"UTC","MEAN_ELEMENT_THEORY":"SGP4","REF_FRAME":"TEME","COUNTRY_CODE":"US","OBJECT_NAME":"STARLINK-1571","MEAN_MOTION_DDOT":"0.0000000000000","ARG_OF_PERICENTER":"75.2930","TLE_LINE2":"2 46081  53.0549  31.2353 0000998  75.2930 284.8170 15.06421210154367","MEAN_ANOMALY":"284.8170","REV_AT_EPOCH":"15436","SITE":"AFETR","RA_OF_ASC_NODE":"31.2353","OBJECT_TYPE":"PAYLOAD","MEAN_MOTION_DOT":"0.00015911","EPOCH":"2023-05-16T17:53:18.081888","FILE":"3909742","OBJECT_ID":"2020-055BG","APOAPSIS":"547.840","MEAN_MOTION":"15.06421210","ECCENTRICITY":"0.00009980","LAUNCH_DATE":"2020-08-07","CENTER_NAME":"EARTH","EPHEMERIS_TYPE":"0","PERIAPSIS":"546.457","TLE_LINE1":"1 46081U 20055BG  23136.74534817  .00015911  00000-0  10840-2 0  9997","BSTAR":"0.00108400000000","INCLINATION":"53.0549","NORAD_CAT_ID":"46081","SEMIMAJOR_AXIS":"6925.284","GP_ID":"231994241"},{"GP_ID":"231994993","SEMIMAJOR_AXIS":"6925.271","NORAD_CAT_ID":"46082","BSTAR":"0.00138870000000","INCLINATION":"53.0552","PERIAPSIS":"546.353","TLE_LINE1":"1 46082U 20055BH  23136.90015215  .00020478  00000-0  13887-2 0  9990","EPHEMERIS_TYPE":"0","CENTER_NAME":"EARTH","LAUNCH_DATE":"2020-08-07","ECCENTRICITY":"0.00011300","MEAN_MOTION":"15.06425377","EPOCH":"2023-05-16T21:36:13.145760","FILE":"3909742","APOAPSIS":"547.918","OBJECT_ID":"2020-055BH","OBJECT_TYPE":"PAYLOAD","RA_OF_ASC_NODE":"30.5440","MEAN_MOTION_DOT":"0.00020478","REV_AT_EPOCH":"15439","SITE":"AFETR","MEAN_ANOMALY":"284.7369","TLE_LINE2":"2 46082  53.0552  30.5440 0001130  75.3746 284.7369 15.06425377154396","ARG_OF_PERICENTER":"75.3746","MEAN_MOTION_DDOT":"0.0000000000000","OBJECT_NAME":"STARLINK-1578","COUNTRY_CODE":"US","MEAN_ELEMENT_THEORY":"SGP4","REF_FRAME":"TEME","TIME_SYSTEM":"UTC","CLASSIFICATION_TYPE":"U","RCS_SIZE":"LARGE","DECAY_DATE":null,"ELEMENT_SET_NO":"999","PERIOD":"95.591"}];
